[{"name":"RCM-1","l1":"1 44322U 19033A   26186.10109002  .00001187  00000+0  12079-3 0  9995","l2":"2 44322  97.7600 193.2939 0001494  89.7056 270.4334 14.92593314384756","cat":"other"},{"name":"RCM-3","l1":"1 44323U 19033B   26186.92816766 -.00000241  00000+0 -17995-4 0  9993","l2":"2 44323  97.7606 194.2037 0001533  89.3322 270.8073 14.92590934384893","cat":"other"},{"name":"RCM-2","l1":"1 44324U 19033C   26186.88333867 -.00000068  00000+0 -11837-5 0  9992","l2":"2 44324  97.7607 194.1098 0001549  87.8862 272.2534 14.92587551384877","cat":"other"}]