{"fetched_at":"2026-07-06T08:47:18.138Z","source":"https://celestrak.org/NORAD/elements/gp.php?NAME=RCM&FORMAT=JSON","constellation":"rcm","records":[{"OBJECT_NAME":"RCM-1","OBJECT_ID":"2019-033A","EPOCH":"2026-07-05T02:25:34.177728","CLASSIFICATION_TYPE":"U","MEAN_MOTION":14.92593314,"ECCENTRICITY":0.0001494,"INCLINATION":97.76,"RA_OF_ASC_NODE":193.2939,"ARG_OF_PERICENTER":89.7056,"MEAN_ANOMALY":270.4334,"EPHEMERIS_TYPE":0,"NORAD_CAT_ID":44322,"ELEMENT_SET_NO":999,"REV_AT_EPOCH":38475,"BSTAR":0.00012079,"MEAN_MOTION_DOT":0.00001187,"MEAN_MOTION_DDOT":0},{"OBJECT_NAME":"RCM-3","OBJECT_ID":"2019-033B","EPOCH":"2026-07-05T22:16:33.685824","CLASSIFICATION_TYPE":"U","MEAN_MOTION":14.92590934,"ECCENTRICITY":0.0001533,"INCLINATION":97.7606,"RA_OF_ASC_NODE":194.2037,"ARG_OF_PERICENTER":89.3322,"MEAN_ANOMALY":270.8073,"EPHEMERIS_TYPE":0,"NORAD_CAT_ID":44323,"ELEMENT_SET_NO":999,"REV_AT_EPOCH":38489,"BSTAR":-0.000017995,"MEAN_MOTION_DOT":-0.00000241,"MEAN_MOTION_DDOT":0},{"OBJECT_NAME":"RCM-2","OBJECT_ID":"2019-033C","EPOCH":"2026-07-05T21:12:00.461088","CLASSIFICATION_TYPE":"U","MEAN_MOTION":14.92587551,"ECCENTRICITY":0.0001549,"INCLINATION":97.7607,"RA_OF_ASC_NODE":194.1098,"ARG_OF_PERICENTER":87.8862,"MEAN_ANOMALY":272.2534,"EPHEMERIS_TYPE":0,"NORAD_CAT_ID":44324,"ELEMENT_SET_NO":999,"REV_AT_EPOCH":38487,"BSTAR":-0.0000011837,"MEAN_MOTION_DOT":-6.8e-7,"MEAN_MOTION_DDOT":0}]}
